[{"OBJECT_NAME":"STARLINK-3887","OBJECT_ID":"2022-049AK","EPOCH":"2026-03-09T22:56:16.518336","MEAN_MOTION":15.08824226,"ECCENTRICITY":0.00010931,"INCLINATION":53.217,"RA_OF_ASC_NODE":57.9255,"ARG_OF_PERICENTER":78.1117,"MEAN_ANOMALY":281.9998,"EPHEMERIS_TYPE":0,"CLASSIFICATION_TYPE":"U","NORAD_CAT_ID":52484,"ELEMENT_SET_NO":999,"REV_AT_EPOCH":21229,"BSTAR":0.00012926291,"MEAN_MOTION_DOT":1.769e-5,"MEAN_MOTION_DDOT":0},{"OBJECT_NAME":"ICON","OBJECT_ID":"2019-068A","EPOCH":"2026-03-09T22:35:01.599072","MEAN_MOTION":15.06276737,"ECCENTRICITY":0.00134076,"INCLINATION":26.9847,"RA_OF_ASC_NODE":325.9297,"ARG_OF_PERICENTER":187.0145,"MEAN_ANOMALY":173.0229,"EPHEMERIS_TYPE":0,"CLASSIFICATION_TYPE":"U","NORAD_CAT_ID":44628,"ELEMENT_SET_NO":999,"REV_AT_EPOCH":35105,"BSTAR":0.00030799545,"MEAN_MOTION_DOT":4.879e-5,"MEAN_MOTION_DDOT":0}]
